FENGYUN 3D              
1 43010U 17072A   26187.88027334 -.00000323  00000+0 -13055-3 0  9990
2 43010  99.0142 162.6592 0001956  30.4770 329.6519 14.19742340447788
NOAA 20 (JPSS-1)        
1 43013U 17073A   26187.80798339  .00000056  00000+0  47659-4 0  9995
2 43013  98.7772 127.0965 0001063 131.0495 229.0773 14.19515363447256
GOES 17                 
1 43226U 18022A   26187.84212985 -.00000168  00000+0  00000+0 0  9997
2 43226   0.9840  85.3990 0000618  57.0032 356.0886  1.00272044 30623
SENTINEL-3B             
1 43437U 18039A   26187.68580545  .00000098  00000+0  58450-4 0  9999
2 43437  98.6239 254.9376 0000960 118.2910 241.8368 14.26740398426900
FENGYUN 2H              
1 43491U 18050A   26187.87561675 -.00000115  00000+0  00000+0 0  9990
2 43491   3.0788  78.8500 0001978 123.1464 117.3292  1.00268705 29637
METOP-C                 
1 43689U 18087A   26187.84687108  .00000070  00000+0  51833-4 0  9990
2 43689  98.6634 247.0902 0002189 104.5597 255.5823 14.21517434397622
GEO-KOMPSAT-2A          
1 43823U 18100A   26187.74269403 -.00000329  00000+0  00000+0 0  9992
2 43823   0.0405 149.6407 0002375 308.8256 221.8892  1.00271565 27829
METEOR-M2 2             
1 44387U 19038A   26187.84331486 -.00000144  00000+0 -42292-4 0  9991
2 44387  98.9159 175.4194 0001182  19.2117 340.9106 14.24370835364095
ARKTIKA-M 1             
1 47719U 21016A   26187.43193862 -.00000238  00000+0  00000+0 0  9990
2 47719  63.2546  54.8487 7294925 270.0174  14.5556  2.00615404 39179
FENGYUN 3E              
1 49008U 21062A   26187.86195978 -.00000181  00000+0 -64436-4 0  9997
2 49008  98.7499 191.0506 0002551  53.7487 306.3925 14.19904870259375
GOES 18                 
1 51850U 22021A   26187.76150079  .00000112  00000+0  00000+0 0  9997
2 51850   0.0184 202.6762 0000524 322.8576 256.3374  1.00271149  6789
NOAA 21 (JPSS-2)        
1 54234U 22150A   26187.76993130  .00000049  00000+0  44080-4 0  9992
2 54234  98.7060 126.2301 0002598 119.3863 240.7573 14.19540096189320
METEOSAT-12 (MTG-I1)    
1 54743U 22170C   26187.57473102  .00000009  00000+0  00000+0 0  9995
2 54743   0.7593  25.8620 0003406  76.6678  28.7511  1.00276487 13176
TIANMU-1 03             
1 55973U 23039A   26187.83618818  .00012886  00000+0  24940-3 0  9999
2 55973  97.5247   2.5829 0003286  47.4908 312.6619 15.47871620183878
TIANMU-1 04             
1 55974U 23039B   26187.81796058  .00012844  00000+0  24332-3 0  9990
2 55974  97.5181   1.7197 0003779  42.2117 317.9423 15.48488486183884
TIANMU-1 05             
1 55975U 23039C   26187.81791155  .00012247  00000+0  23777-3 0  9993
2 55975  97.5226   2.1719 0003589  67.8288 292.3343 15.47794130183850
TIANMU-1 06             
1 55976U 23039D   26187.82259168  .00012847  00000+0  24423-3 0  9993
2 55976  97.5233   2.8324 0003764  61.5908 298.5721 15.48386721183888
FENGYUN 3G              
1 56232U 23055A   26187.73026413  .00016319  00000+0  25816-3 0  9997
2 56232  49.9914 245.2605 0007242  18.4908 341.6321 15.53524884183046
METEOR-M2 3             
1 57166U 23091A   26187.84216514 -.00000010  00000+0  14260-4 0  9993
2 57166  98.6077 242.4173 0005106 108.9539 251.2194 14.24048471157310
TIANMU-1 07             
1 57399U 23101A   26187.85252295  .00005027  00000+0  17538-3 0  9992
2 57399  97.2580 238.0706 0004159  81.7879 278.3833 15.30048900164657
TIANMU-1 08             
1 57400U 23101B   26187.88451117  .00005072  00000+0  17687-3 0  9997
2 57400  97.2569 237.8696 0005269  67.6524 292.5275 15.30053173164651
TIANMU-1 09             
1 57401U 23101C   26187.86748689  .00005270  00000+0  18348-3 0  9994
2 57401  97.2527 237.2588 0004746  83.4366 276.7415 15.30091932164654
TIANMU-1 10             
1 57402U 23101D   26187.83548910  .00005284  00000+0  18407-3 0  9998
2 57402  97.2607 238.2980 0006209  76.2705 283.9227 15.30064675164648
FENGYUN 3F              
1 57490U 23111A   26187.84540709  .00000031  00000+0  34794-4 0  9998
2 57490  98.6829 257.4871 0001423  80.5610 279.5728 14.19942491151655
ARKTIKA-M 2             
1 58584U 23198A   26187.70098855  .00000205  00000+0  00000+0 0  9994
2 58584  63.2193 152.1833 6907948 267.3642  18.7597  2.00609243 18712
TIANMU-1 11             
1 58645U 23205A   26187.84236483  .00004640  00000+0  17667-3 0  9995
2 58645  97.3445 209.0922 0006912 299.8642  60.1910 15.27205923140529
TIANMU-1 12             
1 58646U 23205B   26187.87936372  .00004487  00000+0  17186-3 0  9998
2 58646  97.3434 208.8789 0005460 273.5090  86.5524 15.27035530140516
TIANMU-1 13             
1 58647U 23205C   26187.84723602  .00004758  00000+0  18212-3 0  9998
2 58647  97.3461 209.1244 0005129 249.3741 110.6948 15.27028213140501
TIANMU-1 14             
1 58648U 23205D   26187.89739561  .00004657  00000+0  17804-3 0  9999
2 58648  97.3398 208.3401 0005840 257.1035 102.9552 15.27073051140516
TIANMU-1 19             
1 58660U 23208A   26187.88543131  .00006594  00000+0  21673-3 0  9992
2 58660  97.4516 304.2915 0003848 232.0791 128.0103 15.31887455140344
TIANMU-1 20             
1 58661U 23208B   26187.84267310  .00006406  00000+0  20292-3 0  9999
2 58661  97.4458 304.9042 0005736 246.8001 113.2637 15.33075843140433
