OBJECT_NAME,OBJECT_ID,EPOCH,MEAN_MOTION,ECCENTRICITY,INCLINATION,RA_OF_ASC_NODE,ARG_OF_PERICENTER,MEAN_ANOMALY,EPHEMERIS_TYPE,CLASSIFICATION_TYPE,NORAD_CAT_ID,ELEMENT_SET_NO,REV_AT_EPOCH,BSTAR,MEAN_MOTION_DOT,MEAN_MOTION_DDOT
FENGYUN 3D,2017-072A,2026-07-06T21:07:35.616576,14.19742340,.0001956,99.0142,162.6592,30.4770,329.6519,0,U,43010,999,44778,-.13055E-3,-.323E-5,0
NOAA 20 (JPSS-1),2017-073A,2026-07-06T19:23:29.764896,14.19515363,.0001063,98.7772,127.0965,131.0495,229.0773,0,U,43013,999,44725,.47659E-4,.56E-6,0
GOES 17,2018-022A,2026-07-06T20:12:40.019040,1.00272044,.0000618,0.9840,85.3990,57.0032,356.0886,0,U,43226,999,3062,0,-.168E-5,0
SENTINEL-3B,2018-039A,2026-07-06T16:27:33.590880,14.26740398,.000096,98.6239,254.9376,118.2910,241.8368,0,U,43437,999,42690,.5845E-4,.98E-6,0
FENGYUN 2H,2018-050A,2026-07-06T21:00:53.287200,1.00268705,.0001978,3.0788,78.8500,123.1464,117.3292,0,U,43491,999,2963,0,-.115E-5,0
METOP-C,2018-087A,2026-07-06T20:19:29.661312,14.21517434,.0002189,98.6634,247.0902,104.5597,255.5823,0,U,43689,999,39762,.51833E-4,.7E-6,0
GEO-KOMPSAT-2A,2018-100A,2026-07-06T17:49:28.764192,1.00271565,.0002375,0.0405,149.6407,308.8256,221.8892,0,U,43823,999,2782,0,-.329E-5,0
METEOR-M2 2,2019-038A,2026-07-06T20:14:22.403904,14.24370835,.0001182,98.9159,175.4194,19.2117,340.9106,0,U,44387,999,36409,-.42292E-4,-.144E-5,0
ARKTIKA-M 1,2021-016A,2026-07-06T10:21:59.496768,2.00615404,.7294925,63.2546,54.8487,270.0174,14.5556,0,U,47719,999,3917,0,-.238E-5,0
FENGYUN 3E,2021-062A,2026-07-06T20:41:13.324992,14.19904870,.0002551,98.7499,191.0506,53.7487,306.3925,0,U,49008,999,25937,-.64436E-4,-.181E-5,0
GOES 18,2022-021A,2026-07-06T18:16:33.668256,1.00271149,.0000524,0.0184,202.6762,322.8576,256.3374,0,U,51850,999,678,0,.112E-5,0
NOAA 21 (JPSS-2),2022-150A,2026-07-06T18:28:42.064320,14.19540096,.0002598,98.7060,126.2301,119.3863,240.7573,0,U,54234,999,18932,.4408E-4,.49E-6,0
METEOSAT-12 (MTG-I1),2022-170C,2026-07-06T13:47:36.760128,1.00276487,.0003406,0.7593,25.8620,76.6678,28.7511,0,U,54743,999,1317,0,.9E-7,0
TIANMU-1 03,2023-039A,2026-07-06T20:04:06.658752,15.47871620,.0003286,97.5247,2.5829,47.4908,312.6619,0,U,55973,999,18387,.2494E-3,.12886E-3,0
TIANMU-1 04,2023-039B,2026-07-06T19:37:51.794112,15.48488486,.0003779,97.5181,1.7197,42.2117,317.9423,0,U,55974,999,18388,.24332E-3,.12844E-3,0
TIANMU-1 05,2023-039C,2026-07-06T19:37:47.557920,15.47794130,.0003589,97.5226,2.1719,67.8288,292.3343,0,U,55975,999,18385,.23777E-3,.12247E-3,0
TIANMU-1 06,2023-039D,2026-07-06T19:44:31.921152,15.48386721,.0003764,97.5233,2.8324,61.5908,298.5721,0,U,55976,999,18388,.24423E-3,.12847E-3,0
FENGYUN 3G,2023-055A,2026-07-06T17:31:34.820832,15.53524884,.0007242,49.9914,245.2605,18.4908,341.6321,0,U,56232,999,18304,.25816E-3,.16319E-3,0
METEOR-M2 3,2023-091A,2026-07-06T20:12:43.068096,14.24048471,.0005106,98.6077,242.4173,108.9539,251.2194,0,U,57166,999,15731,.1426E-4,-.1E-6,0
TIANMU-1 07,2023-101A,2026-07-06T20:27:37.982880,15.30048900,.0004159,97.2580,238.0706,81.7879,278.3833,0,U,57399,999,16465,.17538E-3,.5027E-4,0
TIANMU-1 08,2023-101B,2026-07-06T21:13:41.765088,15.30053173,.0005269,97.2569,237.8696,67.6524,292.5275,0,U,57400,999,16465,.17687E-3,.5072E-4,0
TIANMU-1 09,2023-101C,2026-07-06T20:49:10.867296,15.30091932,.0004746,97.2527,237.2588,83.4366,276.7415,0,U,57401,999,16465,.18348E-3,.527E-4,0
TIANMU-1 10,2023-101D,2026-07-06T20:03:06.258240,15.30064675,.0006209,97.2607,238.2980,76.2705,283.9227,0,U,57402,999,16464,.18407E-3,.5284E-4,0
FENGYUN 3F,2023-111A,2026-07-06T20:17:23.172576,14.19942491,.0001423,98.6829,257.4871,80.5610,279.5728,0,U,57490,999,15165,.34794E-4,.31E-6,0
ARKTIKA-M 2,2023-198A,2026-07-06T16:49:25.410720,2.00609243,.6907948,63.2193,152.1833,267.3642,18.7597,0,U,58584,999,1871,0,.205E-5,0
TIANMU-1 11,2023-205A,2026-07-06T20:13:00.321312,15.27205923,.0006912,97.3445,209.0922,299.8642,60.1910,0,U,58645,999,14052,.17667E-3,.464E-4,0
TIANMU-1 12,2023-205B,2026-07-06T21:06:17.025408,15.27035530,.000546,97.3434,208.8789,273.5090,86.5524,0,U,58646,999,14051,.17186E-3,.4487E-4,0
TIANMU-1 13,2023-205C,2026-07-06T20:20:01.192128,15.27028213,.0005129,97.3461,209.1244,249.3741,110.6948,0,U,58647,999,14050,.18212E-3,.4758E-4,0
TIANMU-1 14,2023-205D,2026-07-06T21:32:14.980704,15.27073051,.000584,97.3398,208.3401,257.1035,102.9552,0,U,58648,999,14051,.17804E-3,.4657E-4,0
TIANMU-1 19,2023-208A,2026-07-06T21:15:01.265184,15.31887455,.0003848,97.4516,304.2915,232.0791,128.0103,0,U,58660,999,14034,.21673E-3,.6594E-4,0
TIANMU-1 20,2023-208B,2026-07-06T20:13:26.955840,15.33075843,.0005736,97.4458,304.9042,246.8001,113.2637,0,U,58661,999,14043,.20292E-3,.6406E-4,0
